IXPE                    
1 49954U 21121A   24269.58335648  .00010432  00000+0  74713-3 0  9997
2 49954   0.2308   7.1707 0008513 334.9016 100.0120 15.00106806  5456
